COSMOS 2550             
1 48865U 21056A   25308.84045472  .00005939  00000+0  18620-3 0  9992
2 48865  67.1439  58.6258 0008432 269.8198  90.1990 15.33829222244316
CZ-2C R/B               
1 52794U 22058K   25308.83101609  .00026972  00000+0  52751-3 0  9998
2 52794  50.1916 236.4943 0049856  40.6239 319.8431 15.45834368190767
GSLV R/B                
1 54149U 22138AN  25308.72791593  .00003626  00000+0  32145-3 0  9994
2 54149  87.3859 208.1935 0019153 243.2931 116.6340 14.95810039165245
XRISM                   
1 57800U 23137A   25308.49613692  .00006894  00000+0  41101-3 0  9990
2 57800  31.0033  12.3541 0008239 218.6121 141.3929 15.09735163118842
