CCSDS_OMM_VERS = 2.0
CREATION_DATE  = 
ORIGINATOR     = 

OBJECT_NAME    = COSMOS 2550
OBJECT_ID      = 2021-056A
CENTER_NAME    = EARTH
REF_FRAME      = TEME
TIME_SYSTEM    = UTC
MEAN_ELEMENT_THEORY = SGP/SGP4

EPOCH          = 2025-11-04T20:10:15.287808
MEAN_MOTION    = 15.33829222
ECCENTRICITY   = .0008432
INCLINATION    = 67.1439
RA_OF_ASC_NODE = 58.6258
ARG_OF_PERICENTER = 269.8198
MEAN_ANOMALY   = 90.1990

EPHEMERIS_TYPE = 0
CLASSIFICATION_TYPE = U
NORAD_CAT_ID   = 48865
ELEMENT_SET_NO = 999
REV_AT_EPOCH   = 24431
BSTAR          = .1862E-3
MEAN_MOTION_DOT = .5939E-4
MEAN_MOTION_DDOT = 0

CCSDS_OMM_VERS = 2.0
CREATION_DATE  = 
ORIGINATOR     = 

OBJECT_NAME    = CZ-2C R/B
OBJECT_ID      = 2022-058K
CENTER_NAME    = EARTH
REF_FRAME      = TEME
TIME_SYSTEM    = UTC
MEAN_ELEMENT_THEORY = SGP/SGP4

EPOCH          = 2025-11-04T19:56:39.790176
MEAN_MOTION    = 15.45834368
ECCENTRICITY   = .0049856
INCLINATION    = 50.1916
RA_OF_ASC_NODE = 236.4943
ARG_OF_PERICENTER = 40.6239
MEAN_ANOMALY   = 319.8431

EPHEMERIS_TYPE = 0
CLASSIFICATION_TYPE = U
NORAD_CAT_ID   = 52794
ELEMENT_SET_NO = 999
REV_AT_EPOCH   = 19076
BSTAR          = .52751E-3
MEAN_MOTION_DOT = .26972E-3
MEAN_MOTION_DDOT = 0

CCSDS_OMM_VERS = 2.0
CREATION_DATE  = 
ORIGINATOR     = 

OBJECT_NAME    = GSLV R/B
OBJECT_ID      = 2022-138AN
CENTER_NAME    = EARTH
REF_FRAME      = TEME
TIME_SYSTEM    = UTC
MEAN_ELEMENT_THEORY = SGP/SGP4

EPOCH          = 2025-11-04T17:28:11.936352
MEAN_MOTION    = 14.95810039
ECCENTRICITY   = .0019153
INCLINATION    = 87.3859
RA_OF_ASC_NODE = 208.1935
ARG_OF_PERICENTER = 243.2931
MEAN_ANOMALY   = 116.6340

EPHEMERIS_TYPE = 0
CLASSIFICATION_TYPE = U
NORAD_CAT_ID   = 54149
ELEMENT_SET_NO = 999
REV_AT_EPOCH   = 16524
BSTAR          = .32145E-3
MEAN_MOTION_DOT = .3626E-4
MEAN_MOTION_DDOT = 0

CCSDS_OMM_VERS = 2.0
CREATION_DATE  = 
ORIGINATOR     = 

OBJECT_NAME    = XRISM
OBJECT_ID      = 2023-137A
CENTER_NAME    = EARTH
REF_FRAME      = TEME
TIME_SYSTEM    = UTC
MEAN_ELEMENT_THEORY = SGP/SGP4

EPOCH          = 2025-11-04T11:54:26.229888
MEAN_MOTION    = 15.09735163
ECCENTRICITY   = .00082392
INCLINATION    = 31.0033
RA_OF_ASC_NODE = 12.3541
ARG_OF_PERICENTER = 218.6121
MEAN_ANOMALY   = 141.3929

EPHEMERIS_TYPE = 0
CLASSIFICATION_TYPE = U
NORAD_CAT_ID   = 57800
ELEMENT_SET_NO = 999
REV_AT_EPOCH   = 11884
BSTAR          = .41101272E-3
MEAN_MOTION_DOT = .6894E-4
MEAN_MOTION_DDOT = 0

